{
    "week": 288,
    "satellites": [
        {
            "Name": "COSMOS 2485 (747)",
            "Line1": "1 39155U 13019A   24289.34534223  .00000073  00000+0  00000+0 0  9996",
            "Line2": "2 39155  65.0982  94.1235 0022473 226.3837 133.4577  2.13101698 89286",
            "SatelliteNumber": "39155",
            "Classification": "U",
            "LaunchYear": "13",
            "LaunchNumber": "019",
            "PieceOfLaunch": "A",
            "EpochYear": "24",
            "EpochDay": 289.34534223,
            "FirstDerivativeMeanMotion": 7.3e-07,
            "SecondDerivativeMeanMotion": "00000+0",
            "BSTAR": "00000+0",
            "SetNumber": "999",
            "Inclination": 65.0982,
            "RAAN": 94.1235,
            "Eccentricity": 0.0022473,
            "ArgumentOfPerigee": 226.3837,
            "MeanAnomaly": 133.4577,
            "MeanMotion": 2.13101698,
            "RevolutionNumber": "8928"
        },
        {
            "Name": "COSMOS 2492 (754)",
            "Line1": "1 39620U 14012A   24291.17760055 -.00000038  00000+0  00000+0 0  9997",
            "Line2": "2 39620  65.6206 334.5243 0013172 308.5954  51.3610  2.13103064 82285",
            "SatelliteNumber": "39620",
            "Classification": "U",
            "LaunchYear": "14",
            "LaunchNumber": "012",
            "PieceOfLaunch": "A",
            "EpochYear": "24",
            "EpochDay": 291.17760055,
            "FirstDerivativeMeanMotion": -3.8e-07,
            "SecondDerivativeMeanMotion": "00000+0",
            "BSTAR": "00000+0",
            "SetNumber": "999",
            "Inclination": 65.6206,
            "RAAN": 334.5243,
            "Eccentricity": 0.0013172,
            "ArgumentOfPerigee": 308.5954,
            "MeanAnomaly": 51.361,
            "MeanMotion": 2.13103064,
            "RevolutionNumber": "8228"
        },
        {
            "Name": "COSMOS 2500 (755)",
            "Line1": "1 40001U 14032A   24290.88610877 -.00000036  00000+0  00000+0 0  9995",
            "Line2": "2 40001  65.5577 334.3297 0008983 213.0321 146.9861  2.13105814 80494",
            "SatelliteNumber": "40001",
            "Classification": "U",
            "LaunchYear": "14",
            "LaunchNumber": "032",
            "PieceOfLaunch": "A",
            "EpochYear": "24",
            "EpochDay": 290.88610877,
            "FirstDerivativeMeanMotion": -3.6e-07,
            "SecondDerivativeMeanMotion": "00000+0",
            "BSTAR": "00000+0",
            "SetNumber": "999",
            "Inclination": 65.5577,
            "RAAN": 334.3297,
            "Eccentricity": 0.0008983,
            "ArgumentOfPerigee": 213.0321,
            "MeanAnomaly": 146.9861,
            "MeanMotion": 2.13105814,
            "RevolutionNumber": "8049"
        },
        {
            "Name": "COSMOS 2501 (702K)",
            "Line1": "1 40315U 14075A   24291.14059843  .00000015  00000+0  00000+0 0  9996",
            "Line2": "2 40315  63.6186 211.4395 0019952 208.3222 151.5891  2.13101297 76891",
            "SatelliteNumber": "40315",
            "Classification": "U",
            "LaunchYear": "14",
            "LaunchNumber": "075",
            "PieceOfLaunch": "A",
            "EpochYear": "24",
            "EpochDay": 291.14059843,
            "FirstDerivativeMeanMotion": 1.5e-07,
            "SecondDerivativeMeanMotion": "00000+0",
            "BSTAR": "00000+0",
            "SetNumber": "999",
            "Inclination": 63.6186,
            "RAAN": 211.4395,
            "Eccentricity": 0.0019952,
            "ArgumentOfPerigee": 208.3222,
            "MeanAnomaly": 151.5891,
            "MeanMotion": 2.13101297,
            "RevolutionNumber": "7689"
        },
        {
            "Name": "COSMOS 2514 (751)",
            "Line1": "1 41330U 16008A   24291.59276134 -.00000041  00000+0  00000+0 0  9995",
            "Line2": "2 41330  65.3511 333.7842 0013041 216.4132 143.5702  2.13102527 67662",
            "SatelliteNumber": "41330",
            "Classification": "U",
            "LaunchYear": "16",
            "LaunchNumber": "008",
            "PieceOfLaunch": "A",
            "EpochYear": "24",
            "EpochDay": 291.59276134,
            "FirstDerivativeMeanMotion": -4.1e-07,
            "SecondDerivativeMeanMotion": "00000+0",
            "BSTAR": "00000+0",
            "SetNumber": "999",
            "Inclination": 65.3511,
            "RAAN": 333.7842,
            "Eccentricity": 0.0013041,
            "ArgumentOfPerigee": 216.4132,
            "MeanAnomaly": 143.5702,
            "MeanMotion": 2.13102527,
            "RevolutionNumber": "6766"
        },
        {
            "Name": "COSMOS 2522 (752)",
            "Line1": "1 42939U 17055A   24291.43255923  .00000016  00000+0  00000+0 0  9991",
            "Line2": "2 42939  64.0798 212.5902 0008073 238.2893 121.6509  2.13101882 55029",
            "SatelliteNumber": "42939",
            "Classification": "U",
            "LaunchYear": "17",
            "LaunchNumber": "055",
            "PieceOfLaunch": "A",
            "EpochYear": "24",
            "EpochDay": 291.43255923,
            "FirstDerivativeMeanMotion": 1.6e-07,
            "SecondDerivativeMeanMotion": "00000+0",
            "BSTAR": "00000+0",
            "SetNumber": "999",
            "Inclination": 64.0798,
            "RAAN": 212.5902,
            "Eccentricity": 0.0008073,
            "ArgumentOfPerigee": 238.2893,
            "MeanAnomaly": 121.6509,
            "MeanMotion": 2.13101882,
            "RevolutionNumber": "5502"
        },
        {
            "Name": "COSMOS 2527 (756)",
            "Line1": "1 43508U 18053A   24289.98422661  .00000066  00000+0  00000+0 0  9990",
            "Line2": "2 43508  65.2582  94.2789 0007682 213.6634 146.3119  2.13102222 49291",
            "SatelliteNumber": "43508",
            "Classification": "U",
            "LaunchYear": "18",
            "LaunchNumber": "053",
            "PieceOfLaunch": "A",
            "EpochYear": "24",
            "EpochDay": 289.98422661,
            "FirstDerivativeMeanMotion": 6.6e-07,
            "SecondDerivativeMeanMotion": "00000+0",
            "BSTAR": "00000+0",
            "SetNumber": "999",
            "Inclination": 65.2582,
            "RAAN": 94.2789,
            "Eccentricity": 0.0007682,
            "ArgumentOfPerigee": 213.6634,
            "MeanAnomaly": 146.3119,
            "MeanMotion": 2.13102222,
            "RevolutionNumber": "4929"
        },
        {
            "Name": "COSMOS 2529 (757)",
            "Line1": "1 43687U 18086A   24290.08286233  .00000006  00000+0  00000+0 0  9994",
            "Line2": "2 43687  64.2957 213.1814 0009520 260.7522  99.1517  2.13101919 46305",
            "SatelliteNumber": "43687",
            "Classification": "U",
            "LaunchYear": "18",
            "LaunchNumber": "086",
            "PieceOfLaunch": "A",
            "EpochYear": "24",
            "EpochDay": 290.08286233,
            "FirstDerivativeMeanMotion": 6e-08,
            "SecondDerivativeMeanMotion": "00000+0",
            "BSTAR": "00000+0",
            "SetNumber": "999",
            "Inclination": 64.2957,
            "RAAN": 213.1814,
            "Eccentricity": 0.000952,
            "ArgumentOfPerigee": 260.7522,
            "MeanAnomaly": 99.1517,
            "MeanMotion": 2.13101919,
            "RevolutionNumber": "4630"
        },
        {
            "Name": "COSMOS 2534 (758)",
            "Line1": "1 44299U 19030A   24291.55945019  .00000017  00000+0  00000+0 0  9993",
            "Line2": "2 44299  64.3687 213.0963 0011505 283.1874 263.7413  2.13101797 41971",
            "SatelliteNumber": "44299",
            "Classification": "U",
            "LaunchYear": "19",
            "LaunchNumber": "030",
            "PieceOfLaunch": "A",
            "EpochYear": "24",
            "EpochDay": 291.55945019,
            "FirstDerivativeMeanMotion": 1.7e-07,
            "SecondDerivativeMeanMotion": "00000+0",
            "BSTAR": "00000+0",
            "SetNumber": "999",
            "Inclination": 64.3687,
            "RAAN": 213.0963,
            "Eccentricity": 0.0011505,
            "ArgumentOfPerigee": 283.1874,
            "MeanAnomaly": 263.7413,
            "MeanMotion": 2.13101797,
            "RevolutionNumber": "4197"
        },
        {
            "Name": "COSMOS 2544 (759)",
            "Line1": "1 44850U 19088A   24290.86688592  .00000054  00000+0  00000+0 0  9993",
            "Line2": "2 44850  65.2455  94.0840 0011690 246.5619 113.3328  2.13101999 37753",
            "SatelliteNumber": "44850",
            "Classification": "U",
            "LaunchYear": "19",
            "LaunchNumber": "088",
            "PieceOfLaunch": "A",
            "EpochYear": "24",
            "EpochDay": 290.86688592,
            "FirstDerivativeMeanMotion": 5.4e-07,
            "SecondDerivativeMeanMotion": "00000+0",
            "BSTAR": "00000+0",
            "SetNumber": "999",
            "Inclination": 65.2455,
            "RAAN": 94.084,
            "Eccentricity": 0.001169,
            "ArgumentOfPerigee": 246.5619,
            "MeanAnomaly": 113.3328,
            "MeanMotion": 2.13101999,
            "RevolutionNumber": "3775"
        }
    ]
}